{"type": "FeatureCollection", "features": [ {"type": "Feature", "properties": {"norad_id": 32152, "name": "FENGYUN 1C DEB", "group": "fengyun-1c-debris", "lat": 19.42073934826381, "lon": 150.94507898974007, "alt_km": 741.0419565344346, "timestamp": "2025-12-18T14:52:08.311292+00:00", "meta": {"OBJECT_NAME": "FENGYUN 1C DEB", "OBJECT_ID": "1999-025CSW", "EPOCH": "2025-12-17T04:09:42.037344", "MEAN_MOTION": 14.5680707, "ECCENTRICITY": 0.00551751, "INCLINATION": 98.7605, "RA_OF_ASC_NODE": 152.5422, "ARG_OF_PERICENTER": 187.8049, "MEAN_ANOMALY": 172.2295, "EPHEMERIS_TYPE": 0, "CLASSIFICATION_TYPE": "U", "NORAD_CAT_ID": 32152, "ELEMENT_SET_NO": 999, "REV_AT_EPOCH": 62677, "BSTAR": 0.0015230894, "MEAN_MOTION_DOT": 6.914e-05, "MEAN_MOTION_DDOT": 0}, "tle": {"line1": "1 32152U 99025CSW 25351.17340321  .00006914  00000+0  15231-2 0  9998", "line2": "2 32152  98.7605 152.5422 0055175 187.8049 172.2295 14.56807070626775"}}, "geometry": {"type": "Point", "coordinates": [150.94507898974007, 19.42073934826381]}}, {"type": "Feature", "properties": {"norad_id": 32153, "name": "FENGYUN 1C DEB", "group": "fengyun-1c-debris", "lat": 1.3757723189377422, "lon": 15.993993239462675, "alt_km": 598.4472280154778, "timestamp": "2025-12-18T14:52:08.311302+00:00", "meta": {"OBJECT_NAME": "FENGYUN 1C DEB", "OBJECT_ID": "1999-025CSX", "EPOCH": "2025-12-16T08:59:42.389088", "MEAN_MOTION": 14.48731291, "ECCENTRICITY": 0.02072991, "INCLINATION": 98.7688, "RA_OF_ASC_NODE": 193.4495, "ARG_OF_PERICENTER": 210.2482, "MEAN_ANOMALY": 148.6612, "EPHEMERIS_TYPE": 0, "CLASSIFICATION_TYPE": "U", "NORAD_CAT_ID": 32153, "ELEMENT_SET_NO": 999, "REV_AT_EPOCH": 97276, "BSTAR": 0.00026240283, "MEAN_MOTION_DOT": 1.239e-05, "MEAN_MOTION_DDOT": 0}, "tle": {"line1": "1 32153U 99025CSX 25350.37479617  .00001239  00000+0  26240-3 0  9999", "line2": "2 32153  98.7688 193.4495 0207299 210.2482 148.6612 14.48731291972764"}}, "geometry": {"type": "Point", "coordinates": [15.993993239462675, 1.3757723189377422]}}, {"type": "Feature", "properties": {"norad_id": 32155, "name": "FENGYUN 1C DEB", "group": "fengyun-1c-debris", "lat": -7.062357908599487, "lon": 101.31117437828388, "alt_km": 745.3405570403029, "timestamp": "2025-12-18T14:52:08.311312+00:00", "meta": {"OBJECT_NAME": "FENGYUN 1C DEB", "OBJECT_ID": "1999-025CSZ", "EPOCH": "2025-12-14T12:47:50.436096", "MEAN_MOTION": 14.32956999, "ECCENTRICITY": 0.00690143, "INCLINATION": 98.952, "RA_OF_ASC_NODE": 278.2092, "ARG_OF_PERICENTER": 234.5934, "MEAN_ANOMALY": 124.879, "EPHEMERIS_TYPE": 0, "CLASSIFICATION_TYPE": "U", "NORAD_CAT_ID": 32155, "ELEMENT_SET_NO": 999, "REV_AT_EPOCH": 70248, "BSTAR": 0.00052873215, "MEAN_MOTION_DOT": 1.437e-05, "MEAN_MOTION_DDOT": 0}, "tle": {"line1": "1 32155U 99025CSZ 25348.53322264  .00001437  00000+0  52873-3 0  9992", "line2": "2 32155  98.9520 278.2092 0069014 234.5934 124.8790 14.32956999702480"}}, "geometry": {"type": "Point", "coordinates": [101.31117437828388, -7.062357908599487]}}, {"type": "Feature", "properties": {"norad_id": 32156, "name": "FENGYUN 1C DEB", "group": "fengyun-1c-debris", "lat": 5.078002921846131, "lon": -16.513384667586315, "alt_km": 828.1661826712207, "timestamp": "2025-12-18T14:52:08.311323+00:00", "meta": {"OBJECT_NAME": "FENGYUN 1C DEB", "OBJECT_ID": "1999-025CTA", "EPOCH": "2025-12-16T05:02:42.776448", "MEAN_MOTION": 14.3195706, "ECCENTRICITY": 0.00822162, "INCLINATION": 99.3543, "RA_OF_ASC_NODE": 160.0519, "ARG_OF_PERICENTER": 47.5484, "MEAN_ANOMALY": 313.261, "EPHEMERIS_TYPE": 0, "CLASSIFICATION_TYPE": "U", "NORAD_CAT_ID": 32156, "ELEMENT_SET_NO": 999, "REV_AT_EPOCH": 64870, "BSTAR": 0.00028213677, "MEAN_MOTION_DOT": 7.35e-06, "MEAN_MOTION_DDOT": 0}, "tle": {"line1": "1 32156U 99025CTA 25350.21021732  .00000735  00000+0  28214-3 0  9999", "line2": "2 32156  99.3543 160.0519 0082216  47.5484 313.2610 14.31957060648702"}}, "geometry": {"type": "Point", "coordinates": [-16.513384667586315, 5.078002921846131]}}, {"type": "Feature", "properties": {"norad_id": 32160, "name": "FENGYUN 1C DEB", "group": "fengyun-1c-debris", "lat": 76.97314758806614, "lon": 12.501570088903506, "alt_km": 786.3039958545705, "timestamp": "2025-12-18T14:52:08.311333+00:00", "meta": {"OBJECT_NAME": "FENGYUN 1C DEB", "OBJECT_ID": "1999-025CTE", "EPOCH": "2025-12-18T04:23:15.615168", "MEAN_MOTION": 14.37582475, "ECCENTRICITY": 0.00818172, "INCLINATION": 98.8815, "RA_OF_ASC_NODE": 149.5303, "ARG_OF_PERICENTER": 342.8185, "MEAN_ANOMALY": 17.0234, "EPHEMERIS_TYPE": 0, "CLASSIFICATION_TYPE": "U", "NORAD_CAT_ID": 32160, "ELEMENT_SET_NO": 999, "REV_AT_EPOCH": 95965, "BSTAR": 0.00035922842, "MEAN_MOTION_DOT": 1.071e-05, "MEAN_MOTION_DDOT": 0}, "tle": {"line1": "1 32160U 99025CTE 25352.18281962  .00001071  00000+0  35923-3 0  9994", "line2": "2 32160  98.8815 149.5303 0081817 342.8185  17.0234 14.37582475959651"}}, "geometry": {"type": "Point", "coordinates": [12.501570088903506, 76.97314758806614]}}, {"type": "Feature", "properties": {"norad_id": 32161, "name": "FENGYUN 1C DEB", "group": "fengyun-1c-debris", "lat": -41.01251564839923, "lon": -90.69914246742565, "alt_km": 820.2233755897705, "timestamp": "2025-12-18T14:52:08.311343+00:00", "meta": {"OBJECT_NAME": "FENGYUN 1C DEB", "OBJECT_ID": "1999-025CTF", "EPOCH": "2025-12-16T13:50:27.712896", "MEAN_MOTION": 14.01876938, "ECCENTRICITY": 0.01354983, "INCLINATION": 98.8318, "RA_OF_ASC_NODE": 95.0929, "ARG_OF_PERICENTER": 269.3857, "MEAN_ANOMALY": 89.1783, "EPHEMERIS_TYPE": 0, "CLASSIFICATION_TYPE": "U", "NORAD_CAT_ID": 32161, "ELEMENT_SET_NO": 999, "REV_AT_EPOCH": 63483, "BSTAR": 0.00046170844, "MEAN_MOTION_DOT": 7.17e-06, "MEAN_MOTION_DDOT": 0}, "tle": {"line1": "1 32161U 99025CTF 25350.57670964  .00000717  00000+0  46171-3 0  9993", "line2": "2 32161  98.8318  95.0929 0135498 269.3857  89.1783 14.01876938634833"}}, "geometry": {"type": "Point", "coordinates": [-90.69914246742565, -41.01251564839923]}}, {"type": "Feature", "properties": {"norad_id": 32162, "name": "FENGYUN 1C DEB", "group": "fengyun-1c-debris", "lat": 69.83387081467605, "lon": 11.596726763963105, "alt_km": 674.0487861903584, "timestamp": "2025-12-18T14:52:08.311353+00:00", "meta": {"OBJECT_NAME": "FENGYUN 1C DEB", "OBJECT_ID": "1999-025CTG", "EPOCH": "2025-12-16T01:46:08.893920", "MEAN_MOTION": 14.6208193, "ECCENTRICITY": 0.00478933, "INCLINATION": 99.4644, "RA_OF_ASC_NODE": 35.699, "ARG_OF_PERICENTER": 160.6975, "MEAN_ANOMALY": 199.6051, "EPHEMERIS_TYPE": 0, "CLASSIFICATION_TYPE": "U", "NORAD_CAT_ID": 32162, "ELEMENT_SET_NO": 999, "REV_AT_EPOCH": 94967, "BSTAR": 0.00091752228, "MEAN_MOTION_DOT": 4.625e-05, "MEAN_MOTION_DDOT": 0}, "tle": {"line1": "1 32162U 99025CTG 25350.07371405  .00004625  00000+0  91752-3 0  9994", "line2": "2 32162  99.4644  35.6990 0047893 160.6975 199.6051 14.62081930949679"}}, "geometry": {"type": "Point", "coordinates": [11.596726763963105, 69.83387081467605]}}, {"type": "Feature", "properties": {"norad_id": 32163, "name": "FENGYUN 1C DEB", "group": "fengyun-1c-debris", "lat": -55.34440415004712, "lon": 165.0655354646166, "alt_km": 783.5728247676061, "timestamp": "2025-12-18T14:52:08.311364+00:00", "meta": {"OBJECT_NAME": "FENGYUN 1C DEB", "OBJECT_ID": "1999-025CTH", "EPOCH": "2025-12-17T06:09:38.740032", "MEAN_MOTION": 14.43153942, "ECCENTRICITY": 0.00514789, "INCLINATION": 99.5454, "RA_OF_ASC_NODE": 357.6283, "ARG_OF_PERICENTER": 21.6081, "MEAN_ANOMALY": 338.7262, "EPHEMERIS_TYPE": 0, "CLASSIFICATION_TYPE": "U", "NORAD_CAT_ID": 32163, "ELEMENT_SET_NO": 999, "REV_AT_EPOCH": 61041, "BSTAR": 0.00073174998, "MEAN_MOTION_DOT": 2.443e-05, "MEAN_MOTION_DDOT": 0}, "tle": {"line1": "1 32163U 99025CTH 25351.25669838  .00002443  00000+0  73175-3 0  9991", "line2": "2 32163  99.5454 357.6283 0051478  21.6081 338.7262 14.43153942610419"}}, "geometry": {"type": "Point", "coordinates": [165.0655354646166, -55.34440415004712]}}, {"type": "Feature", "properties": {"norad_id": 32167, "name": "FENGYUN 1C DEB", "group": "fengyun-1c-debris", "lat": -2.250322791155323, "lon": -12.61423574378191, "alt_km": 681.1916181952474, "timestamp": "2025-12-18T14:52:08.311374+00:00", "meta": {"OBJECT_NAME": "FENGYUN 1C DEB", "OBJECT_ID": "1999-025CTM", "EPOCH": "2025-12-16T05:49:26.785632", "MEAN_MOTION": 14.30987892, "ECCENTRICITY": 0.01716497, "INCLINATION": 98.4935, "RA_OF_ASC_NODE": 344.7253, "ARG_OF_PERICENTER": 31.4386, "MEAN_ANOMALY": 329.6921, "EPHEMERIS_TYPE": 0, "CLASSIFICATION_TYPE": "U", "NORAD_CAT_ID": 32167, "ELEMENT_SET_NO": 999, "REV_AT_EPOCH": 62725, "BSTAR": 0.00039856594, "MEAN_MOTION_DOT": 1.185e-05, "MEAN_MOTION_DDOT": 0}, "tle": {"line1": "1 32167U 99025CTM 25350.24267113  .00001185  00000+0  39857-3 0  9994", "line2": "2 32167  98.4935 344.7253 0171649  31.4386 329.6921 14.30987892627255"}}, "geometry": {"type": "Point", "coordinates": [-12.61423574378191, -2.250322791155323]}}, {"type": "Feature", "properties": {"norad_id": 32168, "name": "FENGYUN 1C DEB", "group": "fengyun-1c-debris", "lat": 25.281578013528954, "lon": 57.51142147221532, "alt_km": 1110.2991186512008, "timestamp": "2025-12-18T14:52:08.311385+00:00", "meta": {"OBJECT_NAME": "FENGYUN 1C DEB", "OBJECT_ID": "1999-025CTN", "EPOCH": "2025-12-15T22:38:45.880512", "MEAN_MOTION": 13.86172318, "ECCENTRICITY": 0.02433261, "INCLINATION": 101.6575, "RA_OF_ASC_NODE": 59.781, "ARG_OF_PERICENTER": 230.209, "MEAN_ANOMALY": 127.7405, "EPHEMERIS_TYPE": 0, "CLASSIFICATION_TYPE": "U", "NORAD_CAT_ID": 32168, "ELEMENT_SET_NO": 999, "REV_AT_EPOCH": 63524, "BSTAR": 0.0026145493, "MEAN_MOTION_DOT": 3.743e-05, "MEAN_MOTION_DDOT": 0}, "tle": {"line1": "1 32168U 99025CTN 25349.94358658  .00003743  00000+0  26145-2 0  9992", "line2": "2 32168 101.6575  59.7810 0243326 230.2090 127.7405 13.86172318635249"}}, "geometry": {"type": "Point", "coordinates": [57.51142147221532, 25.281578013528954]}}]}